CCSDS_OMM_VERS = 2.0
CREATION_DATE  = 
ORIGINATOR     = 

OBJECT_NAME    = DRAGONFLY
OBJECT_ID      = 1998-067XH
CENTER_NAME    = EARTH
REF_FRAME      = TEME
TIME_SYSTEM    = UTC
MEAN_ELEMENT_THEORY = SGP/SGP4

EPOCH          = 2026-01-17T23:24:10.118304
MEAN_MOTION    = 15.91776246
ECCENTRICITY   = .00078959
INCLINATION    = 51.6195
RA_OF_ASC_NODE = 307.9110
ARG_OF_PERICENTER = 134.3438
MEAN_ANOMALY   = 225.8217

EPHEMERIS_TYPE = 0
CLASSIFICATION_TYPE = U
NORAD_CAT_ID   = 65729
ELEMENT_SET_NO = 999
REV_AT_EPOCH   = 1889
BSTAR          = .13779564E-2
MEAN_MOTION_DOT = .461592E-2
MEAN_MOTION_DDOT = .93142738E-4

CCSDS_OMM_VERS = 2.0
CREATION_DATE  = 
ORIGINATOR     = 

OBJECT_NAME    = 1998-067XK
OBJECT_ID      = 1998-067XK
CENTER_NAME    = EARTH
REF_FRAME      = TEME
TIME_SYSTEM    = UTC
MEAN_ELEMENT_THEORY = SGP/SGP4

EPOCH          = 2026-01-18T12:37:31.122624
MEAN_MOTION    = 15.74735718
ECCENTRICITY   = .00046366
INCLINATION    = 51.6284
RA_OF_ASC_NODE = 309.4226
ARG_OF_PERICENTER = 103.1647
MEAN_ANOMALY   = 256.9869

EPHEMERIS_TYPE = 0
CLASSIFICATION_TYPE = U
NORAD_CAT_ID   = 65731
ELEMENT_SET_NO = 999
REV_AT_EPOCH   = 1892
BSTAR          = .93781115E-3
MEAN_MOTION_DOT = .142708E-2
MEAN_MOTION_DDOT = 0

CCSDS_OMM_VERS = 2.0
CREATION_DATE  = 
ORIGINATOR     = 

OBJECT_NAME    = RSP-03
OBJECT_ID      = 1998-067XL
CENTER_NAME    = EARTH
REF_FRAME      = TEME
TIME_SYSTEM    = UTC
MEAN_ELEMENT_THEORY = SGP/SGP4

EPOCH          = 2026-01-17T23:35:19.479840
MEAN_MOTION    = 15.81422986
ECCENTRICITY   = .00057296
INCLINATION    = 51.6247
RA_OF_ASC_NODE = 310.2616
ARG_OF_PERICENTER = 112.8259
MEAN_ANOMALY   = 247.3349

EPHEMERIS_TYPE = 0
CLASSIFICATION_TYPE = U
NORAD_CAT_ID   = 65732
ELEMENT_SET_NO = 999
REV_AT_EPOCH   = 1887
BSTAR          = .11110755E-2
MEAN_MOTION_DOT = .230935E-2
MEAN_MOTION_DDOT = 0

CCSDS_OMM_VERS = 2.0
CREATION_DATE  = 
ORIGINATOR     = 

OBJECT_NAME    = GHS-01
OBJECT_ID      = 1998-067XM
CENTER_NAME    = EARTH
REF_FRAME      = TEME
TIME_SYSTEM    = UTC
MEAN_ELEMENT_THEORY = SGP/SGP4

EPOCH          = 2026-01-18T06:27:31.161888
MEAN_MOTION    = 16.11253535
ECCENTRICITY   = .00074705
INCLINATION    = 51.6192
RA_OF_ASC_NODE = 303.8460
ARG_OF_PERICENTER = 164.4307
MEAN_ANOMALY   = 195.6938

EPHEMERIS_TYPE = 0
CLASSIFICATION_TYPE = U
NORAD_CAT_ID   = 65733
ELEMENT_SET_NO = 999
REV_AT_EPOCH   = 1898
BSTAR          = .16375987E-2
MEAN_MOTION_DOT = .1674902E-1
MEAN_MOTION_DDOT = .21642413E-2

CCSDS_OMM_VERS = 2.0
CREATION_DATE  = 
ORIGINATOR     = 

OBJECT_NAME    = YOTSUBA-KULOVER
OBJECT_ID      = 1998-067XN
CENTER_NAME    = EARTH
REF_FRAME      = TEME
TIME_SYSTEM    = UTC
MEAN_ELEMENT_THEORY = SGP/SGP4

EPOCH          = 2026-01-18T14:53:03.394752
MEAN_MOTION    = 15.65447635
ECCENTRICITY   = .00042238
INCLINATION    = 51.6287
RA_OF_ASC_NODE = 313.8170
ARG_OF_PERICENTER = 123.0297
MEAN_ANOMALY   = 237.1105

EPHEMERIS_TYPE = 0
CLASSIFICATION_TYPE = U
NORAD_CAT_ID   = 65941
ELEMENT_SET_NO = 999
REV_AT_EPOCH   = 1562
BSTAR          = .84498707E-3
MEAN_MOTION_DOT = .86573E-3
MEAN_MOTION_DDOT = 0

CCSDS_OMM_VERS = 2.0
CREATION_DATE  = 
ORIGINATOR     = 

OBJECT_NAME    = BOTAN
OBJECT_ID      = 1998-067XP
CENTER_NAME    = EARTH
REF_FRAME      = TEME
TIME_SYSTEM    = UTC
MEAN_ELEMENT_THEORY = SGP/SGP4

EPOCH          = 2026-01-18T04:28:00.138144
MEAN_MOTION    = 15.72717646
ECCENTRICITY   = .00050057
INCLINATION    = 51.6263
RA_OF_ASC_NODE = 313.9028
ARG_OF_PERICENTER = 124.5363
MEAN_ANOMALY   = 235.6108

EPHEMERIS_TYPE = 0
CLASSIFICATION_TYPE = U
NORAD_CAT_ID   = 65942
ELEMENT_SET_NO = 999
REV_AT_EPOCH   = 1558
BSTAR          = .11723179E-2
MEAN_MOTION_DOT = .164107E-2
MEAN_MOTION_DDOT = 0

CCSDS_OMM_VERS = 2.0
CREATION_DATE  = 
ORIGINATOR     = 

OBJECT_NAME    = E-KAGAKU-1
OBJECT_ID      = 1998-067XQ
CENTER_NAME    = EARTH
REF_FRAME      = TEME
TIME_SYSTEM    = UTC
MEAN_ELEMENT_THEORY = SGP/SGP4

EPOCH          = 2026-01-17T23:33:41.668992
MEAN_MOTION    = 15.65310221
ECCENTRICITY   = .00027662
INCLINATION    = 51.6305
RA_OF_ASC_NODE = 317.0601
ARG_OF_PERICENTER = 124.5965
MEAN_ANOMALY   = 235.5292

EPHEMERIS_TYPE = 0
CLASSIFICATION_TYPE = U
NORAD_CAT_ID   = 65943
ELEMENT_SET_NO = 999
REV_AT_EPOCH   = 1552
BSTAR          = .81909675E-3
MEAN_MOTION_DOT = .83392E-3
MEAN_MOTION_DDOT = 0

CCSDS_OMM_VERS = 2.0
CREATION_DATE  = 
ORIGINATOR     = 

OBJECT_NAME    = HRC MONOBLOCK CAMERA
OBJECT_ID      = 1998-067XR
CENTER_NAME    = EARTH
REF_FRAME      = TEME
TIME_SYSTEM    = UTC
MEAN_ELEMENT_THEORY = SGP/SGP4

EPOCH          = 2026-01-18T12:39:38.560032
MEAN_MOTION    = 15.56912627
ECCENTRICITY   = .00009957
INCLINATION    = 51.6309
RA_OF_ASC_NODE = 317.6988
ARG_OF_PERICENTER = 19.7429
MEAN_ANOMALY   = 340.3601

EPHEMERIS_TYPE = 0
CLASSIFICATION_TYPE = U
NORAD_CAT_ID   = 66052
ELEMENT_SET_NO = 999
REV_AT_EPOCH   = 1456
BSTAR          = .50519703E-3
MEAN_MOTION_DOT = .36734E-3
MEAN_MOTION_DDOT = 0

CCSDS_OMM_VERS = 2.0
CREATION_DATE  = 
ORIGINATOR     = 

OBJECT_NAME    = HTV-X1
OBJECT_ID      = 2025-241A
CENTER_NAME    = EARTH
REF_FRAME      = TEME
TIME_SYSTEM    = UTC
MEAN_ELEMENT_THEORY = SGP/SGP4

EPOCH          = 2026-01-18T11:57:19.301184
MEAN_MOTION    = 15.49379123
ECCENTRICITY   = .00077964
INCLINATION    = 51.6336
RA_OF_ASC_NODE = 320.4997
ARG_OF_PERICENTER = 32.1936
MEAN_ANOMALY   = 327.9527

EPHEMERIS_TYPE = 0
CLASSIFICATION_TYPE = U
NORAD_CAT_ID   = 66174
ELEMENT_SET_NO = 999
REV_AT_EPOCH   = 51
BSTAR          = .22598325E-3
MEAN_MOTION_DOT = .12194E-3
MEAN_MOTION_DDOT = 0

CCSDS_OMM_VERS = 2.0
CREATION_DATE  = 
ORIGINATOR     = 

OBJECT_NAME    = SZ-21 MODULE
OBJECT_ID      = 2025-246C
CENTER_NAME    = EARTH
REF_FRAME      = TEME
TIME_SYSTEM    = UTC
MEAN_ELEMENT_THEORY = SGP/SGP4

EPOCH          = 2026-01-18T15:34:48.390816
MEAN_MOTION    = 15.64698072
ECCENTRICITY   = .00025977
INCLINATION    = 41.4750
RA_OF_ASC_NODE = 150.5185
ARG_OF_PERICENTER = 198.6800
MEAN_ANOMALY   = 161.3945

EPHEMERIS_TYPE = 0
CLASSIFICATION_TYPE = U
NORAD_CAT_ID   = 66515
ELEMENT_SET_NO = 999
REV_AT_EPOCH   = 1022
BSTAR          = .28895134E-3
MEAN_MOTION_DOT = .28622E-3
MEAN_MOTION_DDOT = 0

CCSDS_OMM_VERS = 2.0
CREATION_DATE  = 
ORIGINATOR     = 

OBJECT_NAME    = SHENZHOU-22
OBJECT_ID      = 2025-272A
CENTER_NAME    = EARTH
REF_FRAME      = TEME
TIME_SYSTEM    = UTC
MEAN_ELEMENT_THEORY = SGP/SGP4

EPOCH          = 2026-01-18T14:11:10.059360
MEAN_MOTION    = 15.60649246
ECCENTRICITY   = .00110458
INCLINATION    = 41.4661
RA_OF_ASC_NODE = 152.7241
ARG_OF_PERICENTER = 310.5439
MEAN_ANOMALY   = 49.4438

EPHEMERIS_TYPE = 0
CLASSIFICATION_TYPE = U
NORAD_CAT_ID   = 66645
ELEMENT_SET_NO = 999
REV_AT_EPOCH   = 26764
BSTAR          = .23315616E-3
MEAN_MOTION_DOT = .19643E-3
MEAN_MOTION_DDOT = 0

CCSDS_OMM_VERS = 2.0
CREATION_DATE  = 
ORIGINATOR     = 

OBJECT_NAME    = SOYUZ-MS 28
OBJECT_ID      = 2025-275A
CENTER_NAME    = EARTH
REF_FRAME      = TEME
TIME_SYSTEM    = UTC
MEAN_ELEMENT_THEORY = SGP/SGP4

EPOCH          = 2026-01-18T11:57:19.301184
MEAN_MOTION    = 15.49379123
ECCENTRICITY   = .00077964
INCLINATION    = 51.6336
RA_OF_ASC_NODE = 320.4997
ARG_OF_PERICENTER = 32.1936
MEAN_ANOMALY   = 327.9527

EPHEMERIS_TYPE = 0
CLASSIFICATION_TYPE = U
NORAD_CAT_ID   = 66664
ELEMENT_SET_NO = 999
REV_AT_EPOCH   = 128
BSTAR          = .22598325E-3
MEAN_MOTION_DOT = .12194E-3
MEAN_MOTION_DDOT = 0

