DRAGONFLY               
1 65729U 98067XH  26017.97511711  .00461592  93143-4  13780-2 0  9999
2 65729  51.6195 307.9110 0007895 134.3438 225.8217 15.91776246 18895
1998-067XK              
1 65731U 98067XK  26018.52605466  .00142708  00000+0  93781-3 0  9995
2 65731  51.6284 309.4226 0004636 103.1647 256.9869 15.74735718 18920
RSP-03                  
1 65732U 98067XL  26017.98286435  .00230935  00000+0  11111-2 0  9992
2 65732  51.6247 310.2616 0005729 112.8259 247.3349 15.81422986 18872
GHS-01                  
1 65733U 98067XM  26018.26911067  .01674902  21642-2  16376-2 0  9994
2 65733  51.6192 303.8460 0007470 164.4307 195.6938 16.11253535 18986
YOTSUBA-KULOVER         
1 65941U 98067XN  26018.62017818  .00086573  00000+0  84499-3 0  9990
2 65941  51.6287 313.8170 0004223 123.0297 237.1105 15.65447635 15623
BOTAN                   
1 65942U 98067XP  26018.18611271  .00164107  00000+0  11723-2 0  9994
2 65942  51.6263 313.9028 0005005 124.5363 235.6108 15.72717646 15581
E-KAGAKU-1              
1 65943U 98067XQ  26017.98173228  .00083392  00000+0  81910-3 0  9999
2 65943  51.6305 317.0601 0002766 124.5965 235.5292 15.65310221 15527
HRC MONOBLOCK CAMERA    
1 66052U 98067XR  26018.52752963  .00036734  00000+0  50520-3 0  9992
2 66052  51.6309 317.6988 0000995  19.7429 340.3601 15.56912627 14569
HTV-X1                  
1 66174U 25241A   26018.49814006  .00012194  00000+0  22598-3 0  9992
2 66174  51.6336 320.4997 0007796  32.1936 327.9527 15.49379123   512
SZ-21 MODULE            
1 66515U 25246C   26018.64917119  .00028622  00000+0  28895-3 0  9991
2 66515  41.4750 150.5185 0002597 198.6800 161.3945 15.64698072 10228
SHENZHOU-22             
1 66645U 25272A   26018.59108865  .00019643  00000+0  23316-3 0  9994
2 66645  41.4661 152.7241 0011045 310.5439  49.4438 15.60649246267649
SOYUZ-MS 28             
1 66664U 25275A   26018.49814006  .00012194  00000+0  22598-3 0  9993
2 66664  51.6336 320.4997 0007796  32.1936 327.9527 15.49379123  1281
